20          priority: 10
21          pathname: /usr/local/telescope/user/images/gbl34100.fts
 0            status: N
 1          start JD: 2457728.62477 (12/06/2016  3:00 UTC)
 2    lstdelta, mins: 360   
 3           schedfn: gan332.sch
 4             title: Asteroids
 5          observer: shuo-song@uiowa.edu
 6           comment: 
 7               EDB: 57 Mnemosyne,e,15.21551,199.2024,210.9604,3.152731,,0.1141222,344.3189,11/08/2016, 1/01/2000,H7.03,0.15,0
 8          RAOffset:  0:00:00.0
 9         DecOffset:  0:00:00.0
10    frame position: 0+0
11        frame size: 3072x2047
12           binning: 2x2
13    duration, secs: 69    
14           shutter: Open
15          ccdcalib: CATALOG
16            filter: A
17             hcomp: 1
18   Extended Action: 
19  Ext. Act. Values: 
20          priority: 10
21          pathname: /usr/local/telescope/user/images/gan34105.fts
 0            status: N
 1          start JD: 2457728.62569 (12/06/2016  3:01 UTC)
 2    lstdelta, mins: 360   
 3           schedfn: gan332.sch
 4             title: Asteroids
 5          observer: shuo-song@uiowa.edu
 6           comment: 
 7               EDB: 65 Cybele,e,3.562799,155.6346,102.3583,3.428953,,0.1111404,121.5141,11/08/2016, 1/01/2000,H6.62,0.01,0
 8          RAOffset:  0:00:00.0
 9         DecOffset:  0:00:00.0
10    frame position: 0+0
11        frame size: 3072x2047
12           binning: 2x2
13    duration, secs: 165   
14           shutter: Open
15          ccdcalib: CATALOG
16            filter: A
17             hcomp: 1
18   Extended Action: 
19  Ext. Act. Values: 
20          priority: 10
21          pathname: /usr/local/telescope/user/images/gan34106.fts
 0            status: N
 1          start JD: 2457728.62778 (12/06/2016  3:04 UTC)
 2    lstdelta, mins: 360   
 3           schedfn: gbl321.sch
 4             title: Mass Loss Rate of Comets
 5          observer: willow-miller@uiowa.edu
 6           comment: 
 7               EDB: C/2013 US10 (,h,11/15.7071/2015,148.8784,186.1476,340.3679,1.000257,0.823227, 1/01/2000,4.4,4,0
 8          RAOffset:  0:00:00.0
 9         DecOffset:  0:00:00.0
10    frame position: 0+0
11        frame size: 3072x2047
12           binning: 2x2
13    duration, secs: 60    
14           shutter: Open
15          ccdcalib: CATALOG
16            filter: N
17             hcomp: 1
18   Extended Action: 
19  Ext. Act. Values: 
20          priority: 10
21          pathname: /usr/local/telescope/user/images/gbl34101.fts
 0            status: N
 1          start JD: 2457728.63958 (12/06/2016  3:21 UTC)
 2    lstdelta, mins: 0     
 3           schedfn: foc000.sch
 4             title: Routine calibration check images
 5          observer: robert-mutel@uiowa.edu
 6           comment: 
 7               EDB: Focus,f, 1:00:00.0, 30:00:00,  0.00,2000,0
 8          RAOffset:  0:00:00.0
 9         DecOffset:  0:00:00.0
10    frame position: 0+0
11        frame size: 3072x2047
12           binning: 2x2
13    duration, secs: 60    
14           shutter: Open
15          ccdcalib: CATALOG
16            filter: G
17             hcomp: 1
18   Extended Action: 
19  Ext. Act. Values: 
20          priority: 0
21          pathname: /usr/local/telescope/user/images/foc3410c.fts
 0            status: N
 1          start JD: 2457728.64051 (12/06/2016  3:22 UTC)
 2    lstdelta, mins: 0     
 3           schedfn: foc000.sch
 4             title: Routine calibration check images
 5          observer: robert-mutel@uiowa.edu
 6           comment: 
 7               EDB: Focus,f, 1:00:00.0, 30:00:00,  0.00,2000,0
 8          RAOffset:  0:00:00.0
 9         DecOffset:  0:00:00.0
10    frame position: 0+0
11        frame size: 3072x2047
12           binning: 2x2
13    duration, secs: 60    
14           shutter: Open
15          ccdcalib: CATALOG
16            filter: R
17             hcomp: 1
18   Extended Action: 
19  Ext. Act. Values: 
20          priority: 0
21          pathname: /usr/local/telescope/user/images/foc3410d.fts
 0            status: N
 1          start JD: 2457728.64144 (12/06/2016  3:24 UTC)
 2    lstdelta, mins: 0     
 3           schedfn: foc000.sch
 4             title: Routine calibration check images
 5          observer: robert-mutel@uiowa.edu
 6           comment: 
 7               EDB: Focus,f, 1:00:00.0, 30:00:00,  0.00,2000,0
 8          RAOffset:  0:00:00.0
 9         DecOffset:  0:00:00.0
10    frame position: 0+0
11        frame size: 3072x2047
12           binning: 2x2
13    duration, secs: 60    
14           shutter: Open
15          ccdcalib: CATALOG
16            filter: W
17             hcomp: 1
18   Extended Action: 
19  Ext. Act. Values: 
20          priority: 0
21          pathname: /usr/local/telescope/user/images/foc3410e.fts
 0            status: N
 1          start JD: 2457728.64236 (12/06/2016  3:25 UTC)
 2    lstdelta, mins: 360   
 3           schedfn: gbl321.sch
 4             title: Mass Loss Rate of Comets
 5          observer: willow-miller@uiowa.edu
 6           comment: 
 7               EDB: C/2013 US10 (,h,11/15.7071/2015,148.8784,186.1476,340.3679,1.000257,0.823227, 1/01/2000,4.4,4,0
 8          RAOffset:  0:00:00.0
 9         DecOffset:  0:00:00.0
10    frame position: 0+0
11        frame size: 3072x2047
12           binning: 2x2
13    duration, secs: 60    
14           shutter: Open
15          ccdcalib: CATALOG
16            filter: N
17             hcomp: 1
18   Extended Action: 
19  Ext. Act. Values: 
20          priority: 10
21          pathname: /usr/local/telescope/user/images/gbl34102.fts
 0            status: N
 1          start JD: 2457728.64537 (12/06/2016  3:29 UTC)
 2    lstdelta, mins: 360   
 3           schedfn: gbn321.sch
 4             title: Mass Loss Comets
 5          observer: willow-miller@uiowa.edu
 6           comment: 
 7               EDB: C/2015 VL62 (,h, 8/28.6095/2017,165.6139,94.5428,128.3618,1.002013,2.72015, 1/01/2000,8,4,0
 8          RAOffset:  0:00:00.0
 9         DecOffset:  0:00:00.0
10    frame position: 0+0
11        frame size: 3072x2047
12           binning: 2x2
13    duration, secs: 60    
14           shutter: Open
15          ccdcalib: CATALOG
16            filter: N
17             hcomp: 1
18   Extended Action: 
19  Ext. Act. Values: 
20          priority: 10
21          pathname: /usr/local/telescope/user/images/gbn34100.fts
 0            status: N
 1          start JD: 2457728.65556 (12/06/2016  3:44 UTC)
 2    lstdelta, mins: 360   
 3           schedfn: gbl321.sch
 4             title: Mass Loss Rate of Comets
 5          observer: willow-miller@uiowa.edu
 6           comment: 
 7               EDB: C/2013 US10 (,h,11/15.7071/2015,148.8784,186.1476,340.3679,1.000257,0.823227, 1/01/2000,4.4,4,0
 8          RAOffset:  0:00:00.0
 9         DecOffset:  0:00:00.0
10    frame position: 0+0
11        frame size: 3072x2047
12           binning: 2x2
13    duration, secs: 60    
14           shutter: Open
15          ccdcalib: CATALOG
16            filter: N
17             hcomp: 1
18   Extended Action: 
19  Ext. Act. Values: 
20          priority: 10
21          pathname: /usr/local/telescope/user/images/gbl34103.fts
 0            status: N
 1          start JD: 2457728.65926 (12/06/2016  3:49 UTC)
 2    lstdelta, mins: 360   
 3           schedfn: gbn321.sch
 4             title: Mass Loss Comets
 5          observer: willow-miller@uiowa.edu
 6           comment: 
 7               EDB: C/2015 VL62 (,h, 8/28.6095/2017,165.6139,94.5428,128.3618,1.002013,2.72015, 1/01/2000,8,4,0
 8          RAOffset:  0:00:00.0
 9         DecOffset:  0:00:00.0
10    frame position: 0+0
11        frame size: 3072x2047
12           binning: 2x2
13    duration, secs: 60    
14           shutter: Open
15          ccdcalib: CATALOG
16            filter: N
17             hcomp: 1
18   Extended Action: 
19  Ext. Act. Values: 
20          priority: 10
21          pathname: /usr/local/telescope/user/images/gbn34101.fts
 0            status: N
 1          start JD: 2457728.66736 (12/06/2016  4:01 UTC)
 2    lstdelta, mins: 360   
 3           schedfn: gan332.sch
 4             title: Asteroids
 5          observer: shuo-song@uiowa.edu
 6           comment: 
 7               EDB: 18 Melpomene,e,10.13342,150.4692,227.8466,2.295474,,0.2189454,12.28868,11/08/2016, 1/01/2000,H6.51,0.25,0
 8          RAOffset:  0:00:00.0
 9         DecOffset:  0:00:00.0
10    frame position: 0+0
11        frame size: 3072x2047
12           binning: 2x2
13    duration, secs: 5     
14           shutter: Open
15          ccdcalib: CATALOG
16            filter: A
17             hcomp: 1
18   Extended Action: 
19  Ext. Act. Values: 
20          priority: 10
21          pathname: /usr/local/telescope/user/images/gan34101.fts
 0            status: N
 1          start JD: 2457728.66944 (12/06/2016  4:04 UTC)
 2    lstdelta, mins: 360   
 3           schedfn: gbl321.sch
 4             title: Mass Loss Rate of Comets
 5          observer: willow-miller@uiowa.edu
 6           comment: 
 7               EDB: C/2013 US10 (,h,11/15.7071/2015,148.8784,186.1476,340.3679,1.000257,0.823227, 1/01/2000,4.4,4,0
 8          RAOffset:  0:00:00.0
 9         DecOffset:  0:00:00.0
10    frame position: 0+0
11        frame size: 3072x2047
12           binning: 2x2
13    duration, secs: 60    
14           shutter: Open
15          ccdcalib: CATALOG
16            filter: N
17             hcomp: 1
18   Extended Action: 
19  Ext. Act. Values: 
20          priority: 10
21          pathname: /usr/local/telescope/user/images/gbl34104.fts
 0            status: N
 1          start JD: 2457728.67315 (12/06/2016  4:09 UTC)
 2    lstdelta, mins: 360   
 3           schedfn: gbn321.sch
 4             title: Mass Loss Comets
 5          observer: willow-miller@uiowa.edu
 6           comment: 
 7               EDB: C/2015 VL62 (,h, 8/28.6095/2017,165.6139,94.5428,128.3618,1.002013,2.72015, 1/01/2000,8,4,0
 8          RAOffset:  0:00:00.0
 9         DecOffset:  0:00:00.0
10    frame position: 0+0
